HULIANWANG DIGUI-28     
1 63695U 25086J   26200.27627596  .00000027  00000+0  28046-4 0  9996
2 63695  86.5021 302.1223 0002156 110.5848 249.5517 13.24411157 59104
HULIANWANG DIGUI-29     
1 63696U 25086K   26200.26875395  .00000026  00000+0  26771-4 0  9990
2 63696  86.5049 302.2415 0002027 113.1153 247.0195 13.24411540 59105
HULIANWANG DIGUI-30     
1 64283U 25121A   26200.27619828  .00000007  00000+0 -18227-4 0  9998
2 64283  86.5000   2.7286 0001932  88.9327 271.2029 13.24409581 54404
HULIANWANG DIGUI-31     
1 64284U 25121B   26200.26868031  .00000013  00000+0 -34668-5 0  9995
2 64284  86.5015   2.8088 0001861  88.9134 271.2214 13.24414514 54407
HULIANWANG DIGUI-32     
1 64285U 25121C   26200.26099444  .00000031  00000+0  38664-4 0  9998
2 64285  86.4962   2.5636 0001911  93.5190 266.6162 13.24410411 54406
HULIANWANG DIGUI-33     
1 64286U 25121D   26200.25344655  .00000044  00000+0  69006-4 0  9993
2 64286  86.5020   2.7971 0001946  89.6717 270.4640 13.24410014 54409
HULIANWANG DIGUI-34     
1 64287U 25121E   26200.24592713  .00000044  00000+0  68541-4 0  9996
2 64287  86.4997   2.7022 0002099  81.3627 278.7745 13.24410681 54405
HULIANWANG DIGUI-35     
1 64956U 25159A   26200.28386486  .00000041  00000+0  61223-4 0  9999
2 64956  86.4936 271.5873 0004304  57.9639 302.1912 13.24413356 47372
HULIANWANG DIGUI-36     
1 64957U 25159B   26200.27996629  .00000035  00000+0  47405-4 0  9994
2 64957  86.4956 271.6550 0001662 103.6295 256.5024 13.24408807 47370
HULIANWANG DIGUI-37     
1 64958U 25159C   26200.27239366  .00000023  00000+0  19117-4 0  9999
2 64958  86.4897 271.4427 0001779  98.5857 261.5479 13.24409522 47376
HULIANWANG DIGUI-38     
1 64959U 25159D   26200.26487534  .00000017  00000+0  51670-5 0  9995
2 64959  86.4956 271.6479 0001840  99.3017 260.8325 13.24409225 47370
HULIANWANG DIGUI-39     
1 64960U 25159E   26200.25730818  .00000019  00000+0  94637-5 0  9994
2 64960  86.4932 271.5586 0001824 102.1906 257.9432 13.24409103 47377
HULIANWANG DIGUI-40     
1 65043U 25162A   26200.26774402 -.00000104  00000+0  44140-4 0  9998
2 65043  49.9982 150.8711 0000272 339.5658  20.5203 13.29327477 47619
HULIANWANG DIGUI-41     
1 65044U 25162B   26200.25940857 -.00000102  00000+0  48500-4 0  9999
2 65044  49.9993 150.8554 0000267 350.4259   9.6608 13.29327053 47628
HULIANWANG DIGUI-42     
1 65045U 25162C   26200.25098697 -.00000098  00000+0  55616-4 0  9996
2 65045  49.9958 150.7144 0000264 339.3189  20.7672 13.29327694 47625
HULIANWANG DIGUI-43     
1 65046U 25162D   26200.24267517 -.00000099  00000+0  54733-4 0  9995
2 65046  49.9976 150.7205 0000312 333.3957  26.6899 13.29326234 47620
