{"fetched_at":"2026-07-19T17:31:36.159Z","source":"https://celestrak.org/NORAD/elements/gp.php?NAME=HULIANWANG&FORMAT=JSON","constellation":"guowang","records":[{"OBJECT_NAME":"HULIANWANG DIGUI-28","OBJECT_ID":"2025-086J","EPOCH":"2026-07-19T06:37:50.242944","CLASSIFICATION_TYPE":"U","MEAN_MOTION":13.24411157,"ECCENTRICITY":0.00021569,"INCLINATION":86.5021,"RA_OF_ASC_NODE":302.1223,"ARG_OF_PERICENTER":110.5848,"MEAN_ANOMALY":249.5517,"EPHEMERIS_TYPE":0,"NORAD_CAT_ID":63695,"ELEMENT_SET_NO":999,"REV_AT_EPOCH":5910,"BSTAR":0.00002804628,"MEAN_MOTION_DOT":2.7e-7,"MEAN_MOTION_DDOT":0},{"OBJECT_NAME":"HULIANWANG DIGUI-29","OBJECT_ID":"2025-086K","EPOCH":"2026-07-19T06:27:00.341280","CLASSIFICATION_TYPE":"U","MEAN_MOTION":13.2441154,"ECCENTRICITY":0.00020278,"INCLINATION":86.5049,"RA_OF_ASC_NODE":302.2415,"ARG_OF_PERICENTER":113.1153,"MEAN_ANOMALY":247.0195,"EPHEMERIS_TYPE":0,"NORAD_CAT_ID":63696,"ELEMENT_SET_NO":999,"REV_AT_EPOCH":5910,"BSTAR":0.000026771359,"MEAN_MOTION_DOT":2.6e-7,"MEAN_MOTION_DDOT":0},{"OBJECT_NAME":"HULIANWANG DIGUI-30","OBJECT_ID":"2025-121A","EPOCH":"2026-07-19T06:37:43.531392","CLASSIFICATION_TYPE":"U","MEAN_MOTION":13.24409581,"ECCENTRICITY":0.00019323,"INCLINATION":86.5,"RA_OF_ASC_NODE":2.7286,"ARG_OF_PERICENTER":88.9327,"MEAN_ANOMALY":271.2029,"EPHEMERIS_TYPE":0,"NORAD_CAT_ID":64283,"ELEMENT_SET_NO":999,"REV_AT_EPOCH":5440,"BSTAR":-0.000018227275,"MEAN_MOTION_DOT":7e-8,"MEAN_MOTION_DDOT":0},{"OBJECT_NAME":"HULIANWANG DIGUI-31","OBJECT_ID":"2025-121B","EPOCH":"2026-07-19T06:26:53.978784","CLASSIFICATION_TYPE":"U","MEAN_MOTION":13.24414514,"ECCENTRICITY":0.00018616,"INCLINATION":86.5015,"RA_OF_ASC_NODE":2.8088,"ARG_OF_PERICENTER":88.9134,"MEAN_ANOMALY":271.2214,"EPHEMERIS_TYPE":0,"NORAD_CAT_ID":64284,"ELEMENT_SET_NO":999,"REV_AT_EPOCH":5440,"BSTAR":-0.000003466811,"MEAN_MOTION_DOT":1.3e-7,"MEAN_MOTION_DDOT":0},{"OBJECT_NAME":"HULIANWANG DIGUI-32","OBJECT_ID":"2025-121C","EPOCH":"2026-07-19T06:15:49.919616","CLASSIFICATION_TYPE":"U","MEAN_MOTION":13.24410411,"ECCENTRICITY":0.00019117,"INCLINATION":86.4962,"RA_OF_ASC_NODE":2.5636,"ARG_OF_PERICENTER":93.519,"MEAN_ANOMALY":266.6162,"EPHEMERIS_TYPE":0,"NORAD_CAT_ID":64285,"ELEMENT_SET_NO":999,"REV_AT_EPOCH":5440,"BSTAR":0.000038663655,"MEAN_MOTION_DOT":3.1e-7,"MEAN_MOTION_DDOT":0},{"OBJECT_NAME":"HULIANWANG DIGUI-33","OBJECT_ID":"2025-121D","EPOCH":"2026-07-19T06:04:57.781920","CLASSIFICATION_TYPE":"U","MEAN_MOTION":13.24410014,"ECCENTRICITY":0.00019468,"INCLINATION":86.502,"RA_OF_ASC_NODE":2.7971,"ARG_OF_PERICENTER":89.6717,"MEAN_ANOMALY":270.464,"EPHEMERIS_TYPE":0,"NORAD_CAT_ID":64286,"ELEMENT_SET_NO":999,"REV_AT_EPOCH":5440,"BSTAR":0.00006900596,"MEAN_MOTION_DOT":4.4e-7,"MEAN_MOTION_DDOT":0},{"OBJECT_NAME":"HULIANWANG DIGUI-34","OBJECT_ID":"2025-121E","EPOCH":"2026-07-19T05:54:08.104032","CLASSIFICATION_TYPE":"U","MEAN_MOTION":13.24410681,"ECCENTRICITY":0.00020995,"INCLINATION":86.4997,"RA_OF_ASC_NODE":2.7022,"ARG_OF_PERICENTER":81.3627,"MEAN_ANOMALY":278.7745,"EPHEMERIS_TYPE":0,"NORAD_CAT_ID":64287,"ELEMENT_SET_NO":999,"REV_AT_EPOCH":5440,"BSTAR":0.000068541412,"MEAN_MOTION_DOT":4.4e-7,"MEAN_MOTION_DDOT":0},{"OBJECT_NAME":"HULIANWANG DIGUI-35","OBJECT_ID":"2025-159A","EPOCH":"2026-07-19T06:48:45.923904","CLASSIFICATION_TYPE":"U","MEAN_MOTION":13.24413356,"ECCENTRICITY":0.00043046,"INCLINATION":86.4936,"RA_OF_ASC_NODE":271.5873,"ARG_OF_PERICENTER":57.9639,"MEAN_ANOMALY":302.1912,"EPHEMERIS_TYPE":0,"NORAD_CAT_ID":64956,"ELEMENT_SET_NO":999,"REV_AT_EPOCH":4737,"BSTAR":0.000061223246,"MEAN_MOTION_DOT":4.1e-7,"MEAN_MOTION_DDOT":0},{"OBJECT_NAME":"HULIANWANG DIGUI-36","OBJECT_ID":"2025-159B","EPOCH":"2026-07-19T06:43:09.087456","CLASSIFICATION_TYPE":"U","MEAN_MOTION":13.24408807,"ECCENTRICITY":0.00016628,"INCLINATION":86.4956,"RA_OF_ASC_NODE":271.655,"ARG_OF_PERICENTER":103.6295,"MEAN_ANOMALY":256.5024,"EPHEMERIS_TYPE":0,"NORAD_CAT_ID":64957,"ELEMENT_SET_NO":999,"REV_AT_EPOCH":4737,"BSTAR":0.000047404647,"MEAN_MOTION_DOT":3.5e-7,"MEAN_MOTION_DDOT":0},{"OBJECT_NAME":"HULIANWANG DIGUI-37","OBJECT_ID":"2025-159C","EPOCH":"2026-07-19T06:32:14.812224","CLASSIFICATION_TYPE":"U","MEAN_MOTION":13.24409522,"ECCENTRICITY":0.00017797,"INCLINATION":86.4897,"RA_OF_ASC_NODE":271.4427,"ARG_OF_PERICENTER":98.5857,"MEAN_ANOMALY":261.5479,"EPHEMERIS_TYPE":0,"NORAD_CAT_ID":64958,"ELEMENT_SET_NO":999,"REV_AT_EPOCH":4737,"BSTAR":0.000019117409,"MEAN_MOTION_DOT":2.3e-7,"MEAN_MOTION_DDOT":0},{"OBJECT_NAME":"HULIANWANG DIGUI-38","OBJECT_ID":"2025-159D","EPOCH":"2026-07-19T06:21:25.229376","CLASSIFICATION_TYPE":"U","MEAN_MOTION":13.24409225,"ECCENTRICITY":0.00018407,"INCLINATION":86.4956,"RA_OF_ASC_NODE":271.6479,"ARG_OF_PERICENTER":99.3017,"MEAN_ANOMALY":260.8325,"EPHEMERIS_TYPE":0,"NORAD_CAT_ID":64959,"ELEMENT_SET_NO":999,"REV_AT_EPOCH":4737,"BSTAR":0.000005167047,"MEAN_MOTION_DOT":1.7e-7,"MEAN_MOTION_DDOT":0},{"OBJECT_NAME":"HULIANWANG DIGUI-39","OBJECT_ID":"2025-159E","EPOCH":"2026-07-19T06:10:31.426752","CLASSIFICATION_TYPE":"U","MEAN_MOTION":13.24409103,"ECCENTRICITY":0.0001824,"INCLINATION":86.4932,"RA_OF_ASC_NODE":271.5586,"ARG_OF_PERICENTER":102.1906,"MEAN_ANOMALY":257.9432,"EPHEMERIS_TYPE":0,"NORAD_CAT_ID":64960,"ELEMENT_SET_NO":999,"REV_AT_EPOCH":4737,"BSTAR":0.000009463738,"MEAN_MOTION_DOT":1.9e-7,"MEAN_MOTION_DDOT":0},{"OBJECT_NAME":"HULIANWANG DIGUI-40","OBJECT_ID":"2025-162A","EPOCH":"2026-07-19T06:25:33.083328","CLASSIFICATION_TYPE":"U","MEAN_MOTION":13.29327477,"ECCENTRICITY":0.00002728,"INCLINATION":49.9982,"RA_OF_ASC_NODE":150.8711,"ARG_OF_PERICENTER":339.5658,"MEAN_ANOMALY":20.5203,"EPHEMERIS_TYPE":0,"NORAD_CAT_ID":65043,"ELEMENT_SET_NO":999,"REV_AT_EPOCH":4761,"BSTAR":0.000044140332,"MEAN_MOTION_DOT":-0.00000104,"MEAN_MOTION_DDOT":0},{"OBJECT_NAME":"HULIANWANG DIGUI-41","OBJECT_ID":"2025-162B","EPOCH":"2026-07-19T06:13:32.900448","CLASSIFICATION_TYPE":"U","MEAN_MOTION":13.29327053,"ECCENTRICITY":0.0000267,"INCLINATION":49.9993,"RA_OF_ASC_NODE":150.8554,"ARG_OF_PERICENTER":350.4259,"MEAN_ANOMALY":9.6608,"EPHEMERIS_TYPE":0,"NORAD_CAT_ID":65044,"ELEMENT_SET_NO":999,"REV_AT_EPOCH":4762,"BSTAR":0.000048500113,"MEAN_MOTION_DOT":-0.00000102,"MEAN_MOTION_DDOT":0},{"OBJECT_NAME":"HULIANWANG DIGUI-42","OBJECT_ID":"2025-162C","EPOCH":"2026-07-19T06:01:25.274208","CLASSIFICATION_TYPE":"U","MEAN_MOTION":13.29327694,"ECCENTRICITY":0.00002645,"INCLINATION":49.9958,"RA_OF_ASC_NODE":150.7144,"ARG_OF_PERICENTER":339.3189,"MEAN_ANOMALY":20.7672,"EPHEMERIS_TYPE":0,"NORAD_CAT_ID":65045,"ELEMENT_SET_NO":999,"REV_AT_EPOCH":4762,"BSTAR":0.000055616027,"MEAN_MOTION_DOT":-9.8e-7,"MEAN_MOTION_DDOT":0},{"OBJECT_NAME":"HULIANWANG DIGUI-43","OBJECT_ID":"2025-162D","EPOCH":"2026-07-19T05:49:27.134688","CLASSIFICATION_TYPE":"U","MEAN_MOTION":13.29326234,"ECCENTRICITY":0.00003123,"INCLINATION":49.9976,"RA_OF_ASC_NODE":150.7205,"ARG_OF_PERICENTER":333.3957,"MEAN_ANOMALY":26.6899,"EPHEMERIS_TYPE":0,"NORAD_CAT_ID":65046,"ELEMENT_SET_NO":999,"REV_AT_EPOCH":4762,"BSTAR":0.000054733352,"MEAN_MOTION_DOT":-9.9e-7,"MEAN_MOTION_DDOT":0}]}
